ICEYE-X45               
1 62705U 25009DA  26068.72395651  .00005708  00000+0  45353-3 0  9998
2 62705  97.8049 154.8158 0000884  73.7941 286.3380 15.00857928 62768
STARLINK-36118          
1 67009U 25293G   26068.78675438  .00005011  00000+0  42755-3 0  9995
2 67009  70.0019  94.1613 0003955 270.0357  90.0349 14.98317910 14903
